{
"type": "FeatureCollection",
"name": "Commune_Temara",
"crs": { "type": "name", "properties": { "name": "urn:ogc:def:crs:OGC:1.3:CRS84" } },
"features": [
{ "type": "Feature", "properties": { "ISO": "MA-04-501-0107", "nom_fr": "Témara", "nom_ar": "تمارة", "P_ensemble": 295606, "P_masculin": 146170, "P_feminins": 149436, "P_menages": 82146.0, "s": 36162488.26 }, "geometry": { "type": "MultiPolygon", "coordinates": [ [ [ [ -6.879006120468583, 33.882946544793356 ], [ -6.879587, 33.88367 ], [ -6.879501, 33.883955 ], [ -6.880188, 33.88652 ], [ -6.88139, 33.890225 ], [ -6.882162, 33.894357 ], [ -6.883364, 33.89735 ], [ -6.883793, 33.898917 ], [ -6.885252, 33.897563 ], [ -6.886282, 33.896851 ], [ -6.889372, 33.899202 ], [ -6.892118, 33.900983 ], [ -6.893835, 33.899558 ], [ -6.895466, 33.898703 ], [ -6.89744, 33.897207 ], [ -6.897869, 33.897563 ], [ -6.897955, 33.897065 ], [ -6.899328, 33.896067 ], [ -6.901817, 33.895853 ], [ -6.908255, 33.890795 ], [ -6.910915, 33.888301 ], [ -6.913919, 33.886306 ], [ -6.917439, 33.883314 ], [ -6.917782, 33.883527 ], [ -6.918726, 33.882886 ], [ -6.921644, 33.880535 ], [ -6.921816, 33.881532 ], [ -6.922417, 33.881105 ], [ -6.933231, 33.871485 ], [ -6.93572, 33.870059 ], [ -6.93984, 33.868135 ], [ -6.941214, 33.870344 ], [ -6.940956, 33.871556 ], [ -6.941214, 33.872268 ], [ -6.940784, 33.872839 ], [ -6.939497, 33.873266 ], [ -6.938982, 33.873836 ], [ -6.938467, 33.874763 ], [ -6.936493, 33.877684 ], [ -6.93572, 33.879323 ], [ -6.934433, 33.881105 ], [ -6.937008, 33.882387 ], [ -6.937094, 33.882744 ], [ -6.937952, 33.883599 ], [ -6.938639, 33.884311 ], [ -6.936493, 33.88595 ], [ -6.935463, 33.88709 ], [ -6.934519, 33.889584 ], [ -6.933575, 33.891151 ], [ -6.932974, 33.892434 ], [ -6.931686, 33.894357 ], [ -6.931772, 33.894571 ], [ -6.936321, 33.890439 ], [ -6.939497, 33.892505 ], [ -6.939926, 33.892505 ], [ -6.947308, 33.898062 ], [ -6.947565, 33.899131 ], [ -6.947393, 33.901553 ], [ -6.947823, 33.90198 ], [ -6.94808, 33.901766 ], [ -6.948338, 33.902336 ], [ -6.950998, 33.904972 ], [ -6.951599, 33.906682 ], [ -6.950397, 33.907893 ], [ -6.948509, 33.909033 ], [ -6.946278, 33.910742 ], [ -6.945591, 33.912737 ], [ -6.945248, 33.913235 ], [ -6.942587, 33.916227 ], [ -6.940527, 33.917936 ], [ -6.940012, 33.91872 ], [ -6.941042, 33.9205 ], [ -6.941214, 33.920572 ], [ -6.942415, 33.922423 ], [ -6.943445, 33.924061 ], [ -6.943617, 33.923919 ], [ -6.945848, 33.925842 ], [ -6.933317, 33.935527 ], [ -6.925764, 33.942292 ], [ -6.921902, 33.939088 ], [ -6.921129, 33.939372 ], [ -6.918468, 33.939372 ], [ -6.917696, 33.9398 ], [ -6.916666, 33.939657 ], [ -6.915722, 33.939871 ], [ -6.912804, 33.942505 ], [ -6.912546, 33.942434 ], [ -6.912117, 33.94279 ], [ -6.91186, 33.943502 ], [ -6.911001, 33.944214 ], [ -6.910658, 33.944001 ], [ -6.909628, 33.944784 ], [ -6.908941, 33.945638 ], [ -6.90877, 33.94571 ], [ -6.907654, 33.944926 ], [ -6.906967, 33.944642 ], [ -6.906967, 33.944926 ], [ -6.90671, 33.945211 ], [ -6.905851, 33.945354 ], [ -6.905594, 33.945496 ], [ -6.904993, 33.946137 ], [ -6.904392, 33.947062 ], [ -6.904221, 33.947062 ], [ -6.903191, 33.946778 ], [ -6.902075, 33.946849 ], [ -6.901817, 33.946635 ], [ -6.901388, 33.946493 ], [ -6.900444, 33.945923 ], [ -6.898642, 33.945425 ], [ -6.89744, 33.946564 ], [ -6.895208, 33.945425 ], [ -6.892891, 33.944428 ], [ -6.890059, 33.94393 ], [ -6.888514, 33.943858 ], [ -6.885939, 33.944001 ], [ -6.883707, 33.94457 ], [ -6.883192, 33.943075 ], [ -6.88242, 33.941793 ], [ -6.881046, 33.940512 ], [ -6.879845, 33.9398 ], [ -6.889973, 33.930471 ], [ -6.888599, 33.929047 ], [ -6.885509, 33.926625 ], [ -6.884737, 33.926981 ], [ -6.883707, 33.926412 ], [ -6.882849, 33.925842 ], [ -6.881561, 33.924774 ], [ -6.881905, 33.921284 ], [ -6.882505, 33.920144 ], [ -6.881304, 33.919218 ], [ -6.878986, 33.917723 ], [ -6.87727, 33.916156 ], [ -6.875467, 33.917153 ], [ -6.874008, 33.916156 ], [ -6.872978, 33.916939 ], [ -6.868858, 33.903049 ], [ -6.87624, 33.898276 ], [ -6.875467, 33.896637 ], [ -6.875124, 33.892576 ], [ -6.876669, 33.888087 ], [ -6.87727, 33.886876 ], [ -6.878729, 33.884667 ], [ -6.878901, 33.883741 ], [ -6.879006120468583, 33.882946544793356 ] ] ] ] } }
]
}
